[{"OBJECT_NAME":"STARLINK-34577","OBJECT_ID":"2025-142Z","EPOCH":"2026-03-09T20:22:49.679904","MEAN_MOTION":14.95911073,"ECCENTRICITY":0.0002346,"INCLINATION":70.0008,"RA_OF_ASC_NODE":314.0623,"ARG_OF_PERICENTER":271.1669,"MEAN_ANOMALY":88.922,"EPHEMERIS_TYPE":0,"CLASSIFICATION_TYPE":"U","NORAD_CAT_ID":64719,"ELEMENT_SET_NO":999,"REV_AT_EPOCH":3951,"BSTAR":0.00017350703,"MEAN_MOTION_DOT":1.855e-5,"MEAN_MOTION_DDOT":0},{"OBJECT_NAME":"SL-14 R\/B","OBJECT_ID":"1979-011B","EPOCH":"2026-03-09T13:55:54.072480","MEAN_MOTION":14.91907955,"ECCENTRICITY":0.0017409,"INCLINATION":82.5209,"RA_OF_ASC_NODE":96.6746,"ARG_OF_PERICENTER":60.8949,"MEAN_ANOMALY":299.4011,"EPHEMERIS_TYPE":0,"CLASSIFICATION_TYPE":"U","NORAD_CAT_ID":11267,"ELEMENT_SET_NO":999,"REV_AT_EPOCH":52876,"BSTAR":6.7656e-5,"MEAN_MOTION_DOT":7.11e-6,"MEAN_MOTION_DDOT":0}]
